#dP2022 10 17  0  0  0.00000000      96 __u+U ITR00 FIT  IAC
## 2232  86400.00000000   900.00000000 59869 0.0000000000000
+  118   C06C07C08C09C10C11C12C13C14C16C19C20C21C22C23C24C25
+        C26C27C28C29C30C32C33C34C35C36C37C38C39C40C41C42C43
+        C44C45C46E01E02E03E04E05E07E08E09E10E11E12E13E14E15
+        E18E19E21E24E25E26E27E30E31E33E34E36G01G02G03G04G05
+        G06G07G08G09G10G11G12G13G14G15G16G17G18G19G20G21G22
+        G23G24G25G26G27G28G29G30G31G32J02J03J04R01R02R03R04
+        R05R07R08R09R11R12R13R14R15R17R18R19R20R21R22R24  0
++         7  8  9  6  8  6  7  9  6  6  6  7  6  7  7  7  7
++         7  7  8  7  7  7  6  6  7  7  8  8  7  9  6  6  6
++         7  7  6  7  7  7  6  6  7  6  6  7  7  7  6  7  6
++         6  7  7  6  6  6  7  8  7  7  7  7  6  6  6  6  6
++         7  7  6  5  6  7  6  6  6  6  6  6  6  6  6  6  7
++         6  7  7  6  6  6  6  6  7  6  8  8  8  6  6  6  6
++         7  7  6  7  7  7  6  7  7  7  7  8  8  6  8  6  0
%c M  cc GPS ccc cccc cccc cccc cccc ccccc ccccc ccccc ccccc
%c cc cc ccc ccc cccc cccc cccc cccc ccccc ccccc ccccc ccccc
%f  0.0000000  0.000000000  0.00000000000  0.000000000000000
%f  0.0000000  0.000000000  0.00000000000  0.000000000000000
%i    0    0    0    0      0      0      0      0         0
%i    0    0    0    0      0      0      0      0         0
/* INFORMATION & ANALYSIS CENTER (IAC)      ULTRA-RAPID DATA
/* S/V CLOCKS ARE ALIGNED TO GNSS TIME                      
/* G:C1WC2W R:C1PC2P E:C1XC5X C:C2IC6I J:C1CC2S             
/* PCV:IGS14_2218 OL/AL:FES2004  NONE     YN ORB:CoN CLK:CoN
*  2022 10 17 16  0  0.00000000
PC06  -7073.606857  40033.313370 -10726.065870    892.354488
PC07  -7215.170175  26289.187827  32225.688092   -289.751430
PC08 -20739.780578  28890.077722 -22806.559926    496.101794
PC09  -1334.787286  41860.167024   -267.965902   -832.197410
PC10   1671.436877  28765.917818  31194.679942     82.313688
PC11 -13132.941613  11546.634467  21827.445273   -345.997339
PC12 -15415.602093  -9108.665135  21439.091809   -478.478760
PC13 -11892.100068  29193.561032 -28027.950154    109.355190
PC14 -20825.995284   5007.315032 -17851.069026    577.997659
PC16  -9475.772570  38059.987108 -14922.600906    128.153971
PC19  12495.036626 -11415.531499  22205.294658   -897.728461
PC20  25137.470320   1018.260692  12104.177963    861.994619
PC21 -23493.149911 -13777.896012   6048.219337   -623.543317
PC22  -7930.216365 -17839.185654  19922.278360   -845.534310
PC23  -3555.180798  20162.125395  18973.785890   -601.986464
PC24 -23757.264942   6767.960364 -13017.222539   -657.638564
PC25 -18513.860537  20219.447250   5271.671336     11.071045
PC26 -15230.013357  -7909.585188 -22022.133840    -22.819879
PC27  13810.641458  17914.221806 -16355.244277     37.332300
PC28   4277.679991  27567.631074   -880.310962     25.366253
PC29   7776.045603 -21324.798700 -16234.340512     28.060480
PC30  15839.162498  -1882.567428 -22901.336680      0.554402
PC32  23564.779317  13639.154477  -6125.462616   -755.515385
PC33 -12522.793355  11458.690320 -22153.046808   -933.789962
PC34 -15660.166561   3172.009000  22870.456692     18.787165
PC35  -4291.684910 -27583.579037   -560.262550     46.120489
PC36  19348.070825 -19544.532825  -4678.031521   -732.277446
PC37  13937.864635   9375.723031  22296.768251   -538.464120
PC38 -25725.289951  29807.675266 -15320.183952     31.722021
PC39 -10472.569683  35615.906913 -19796.540079     -0.665321
PC40 -11605.398266  19795.661113  35371.509904     -6.234548
PC41   7420.124345  17788.203607 -20137.319954   -182.402460
PC42 -25539.307407  -1854.810478 -11040.383719   -491.495348
PC43  -8369.290203  20731.278503  16685.152957     20.066420
PC44 -14465.100476 -17613.198122  16110.680833     84.508992
PC45   3234.990129 -19942.039306 -19235.450513    -10.970649
PC46  23954.975494  -8261.318819  11646.675728     -6.924204
PE01  -3706.698858  16987.156786  23963.656957   -548.229719
PE02   3466.475967 -16975.406459 -23993.070840    331.312004
PE03  -5913.010004 -24815.728148  14994.815940   -610.693420
PE04  19450.859869  22173.417657   2479.426608  -1138.665846
PE05  11416.719474 -12925.085042  24052.712310   -133.626381
PE07 -21823.623540  -6276.585305 -18986.169555   -714.024700
PE08 -19521.382068 -22099.332555  -2541.127475   -616.943989
PE09  21798.205108   6478.547429  18949.480109   -696.540847
PE10  14303.209984   7342.820458 -24859.119912   -484.332204
PE11  17960.703249  -4508.760159 -23101.157699   1747.822554
PE12   8795.287441  17137.295407 -22474.376108   -227.283522
PE13 -17708.213479   3627.392393  23444.849395    430.674533
PE14  20334.042261  -4606.239580 -23964.823452     30.380903
PE15  -8610.059464 -17314.101421  22414.932658    713.452968
PE18  -9331.548544  14533.261580  18182.171278   -850.629409
PE19   3603.484355  23976.853471 -16978.212244  -4241.386525
PE21 -22152.629755  13092.767989  14639.068576   -763.982229
PE24  29211.998558   -621.614022   4652.644572   -896.386904
PE25  22384.253588 -12949.192972 -14385.285697   -590.423380
PE26 -16145.837247  22767.576259   9879.921624  -1738.057751
PE27 -29338.636494   1426.263824  -3700.505183   -417.586382
PE30 -18431.770969 -11496.459242 -20116.302517   -923.863764
PE31  19170.982869  10985.015993  19707.833624   -505.965538
PE33  -5523.871207  27914.479835  -8153.776434   -454.790528
PE34   5341.531716 -27887.812873   8323.455440     -9.937646
PE36  16334.633996 -22233.118398 -10718.077064   -447.267250
PG01 -13987.588870  22101.910930   3079.536989    266.060395
PG02  13118.169404 -22492.970229  -5097.858191   -641.960973
PG03 -17258.257344  11963.229053 -16324.066826   -365.401097
PG04  -6448.978624  16278.814849 -19941.055922   -102.054151
PG05  25108.982776  -6490.691253   5843.795635   -100.751621
PG06  11365.859921   9514.168434 -21968.334541    493.821107
PG07  -3334.322211  23814.603952  11130.199578    297.762165
PG08 -13726.881530   6737.762148  21693.796018    -89.310525
PG09   4286.895033  22766.101675 -13034.760610   -281.908399
PG10 -15408.614363 -11701.658198  18486.573383     -7.900473
PG11  17297.755300  -2152.888273 -20025.438375    -26.995260
PG12  18226.864468 -10824.240229 -16205.383437   -293.349434
PG13  16672.539614   2561.758774  20390.370106    407.773396
PG14  12991.932659  13340.536980  18988.530685    -94.066435
PG15  13117.849118  -8684.141260  20970.575332    -20.127534
PG16 -26795.352759   -699.357146    432.269120   -526.326802
PG17  12616.966951  23328.568349    677.203897    669.608304
PG18   3082.397756 -23335.702151  12162.912124     11.372657
PG19  16978.037938  17861.014287 -10476.086392    225.056521
PG20  25267.665668    262.281424  -7779.568473    477.620974
PG21 -16411.448495  16385.445917  12840.254073    157.854667
PG22 -17740.805860 -15689.526458 -11779.725083    347.425128
PG23  -3799.068052 -14672.593166  21809.482584     -1.040283
PG24  14434.190672 -20598.826028   7506.314919     96.213827
PG25   6179.830478 -15296.998252 -21053.213131    383.339871
PG26 -24412.873134  -4598.716061  -9926.149272    232.791229
PG27 -18575.616994  -5955.657516  17988.075828    196.385829
PG28  20452.267924  10316.306013  13728.071648    327.791172
PG29  -1431.885947 -22435.155079 -14120.756574   -560.342212
PG30   5942.827610  18033.991929  18562.420751   -537.204546
PG31 -12938.139980  -8414.692753 -21745.484691   -197.105944
PG32 -15902.664563 -21277.767380  -2203.980609   -266.348384
PJ02 -30326.597789  24973.898168  20387.732680     -7.464062
PJ03 -28011.843772  26409.147087  22275.084275     -3.044010
PJ04 -28889.478773  19951.289008 -18178.812625    111.905022
PR01  13594.445443  -3769.504463  21247.252133     16.401560
PR02  -4426.941147 -14374.118147  20658.032637    -23.020860
PR03 -18532.657242 -15889.694702   7543.388453     65.643489
PR04 -21987.656256  -8736.314478  -9535.625967    161.518629
PR05 -13521.920264   3193.846576 -21395.521943    101.403442
PR07  18908.445550  15693.032805  -6712.527173     42.729971
PR08  22011.720161   8437.059278   9752.072067    -67.662724
PR09  -8071.697769  15176.901691  18834.494946     82.547490
PR11  20819.415425  -3694.501868  14291.116790     24.294731
PR12  21267.188065 -13511.761292  -3889.125928     22.116325
PR13   9783.563743 -15226.903833 -17984.474821    -27.893807
PR14  -9031.211258  -7568.446455 -22606.297600     24.208176
PR15 -21309.068553   4089.362521 -13386.614980     93.161550
PR17  -5915.584020 -19805.247259  14924.616734    569.932475
PR18 -10155.196999  -4008.051129  23074.174205     47.559931
PR19  -9854.197300  12568.506055  19896.793112   -207.615405
PR20  -3241.285024  25144.593186   2674.847537    -80.372099
PR21   6335.777772  18730.059536 -16134.946208   -342.317903
PR22  10502.807562   3574.621982 -22940.426839     14.498394
PR24   2238.231550 -25322.335739  -1927.691200    120.923108
EOF
